BEIDOU-3 M6             
1 43582U 18062B   23292.08397060  .00000028  00000+0  00000+0 0  9998
2 43582  54.1672 215.3777 0005901  13.5113 346.5342  1.86229766 35530
BEIDOU-3 M12            
1 43602U 18067A   23292.01987043  .00000029  00000+0  00000+0 0  9996
2 43602  54.2553 214.0388 0007570  19.0548 341.0056  1.86231415 35012
BEIDOU-3 M11            
1 43603U 18067B   23291.61675047  .00000031  00000+0  00000+0 0  9993
2 43603  54.2525 214.0182 0004475   8.5585 351.4803  1.86231417 35038
BEIDOU-3 M13            
1 43622U 18072A   23291.57570819  .00000045  00000+0  00000+0 0  9991
2 43622  55.8058  94.9854 0004015 288.0282  71.9421  1.86231359 34547
BEIDOU-3 M14            
1 43623U 18072B   23291.97811315  .00000046  00000+0  00000+0 0  9996
2 43623  55.8081  94.9647 0002090 345.0858  14.9217  1.86231371 34542
BEIDOU-3 M16            
1 43647U 18078A   23292.14168854 -.00000055  00000+0  00000+0 0  9992
2 43647  54.8812 333.7950 0006174   0.7314 359.3310  1.86227205 34056
BEIDOU-3 M15            
1 43648U 18078B   23292.27110309 -.00000055  00000+0  00000+0 0  9999
2 43648  54.8768 333.7941 0002931   3.0482 357.0147  1.86232189 34078
BEIDOU-3 G1             
1 43683U 18085A   23292.56993709 -.00000267  00000+0  00000+0 0  9996
2 43683   1.6128 121.3699 0002685   1.7375 249.9454  1.00274097 18319
COSMOS 2529             
1 43687U 18086A   23291.87642297  .00000037  00000+0  00000+0 0  9991
2 43687  64.3113 225.5075 0009921 264.3005  95.6007  2.13101997 38567
BEIDOU-3 M17            
1 43706U 18093A   23291.34504613  .00000031  00000+0  00000+0 0  9996
2 43706  54.2503 215.3338 0008975 286.5184  73.4107  1.86231966 33403
BEIDOU-3 M18            
1 43707U 18093B   23292.28542704  .00000027  00000+0  00000+0 0  9999
2 43707  54.2508 215.2935 0007736 316.4026  43.5665  1.86229767 33439
NAVSTAR 77 (USA 289)    
1 43873U 18109A   23291.06487237  .00000066  00000+0  00000+0 0  9998
2 43873  55.2080 130.6371 0026604 189.7682  11.7129  2.00570380 35551
BEIDOU-3 IGSO-1         
1 44204U 19023A   23291.78820892 -.00000210  00000+0  00000+0 0  9992
2 44204  57.2864  47.7787 0024454 197.1542 185.5182  1.00269019 16595
BEIDOU-2 G8             
1 44231U 19027A   23292.58915421 -.00000237  00000+0  00000+0 0  9997
2 44231   1.3528  70.7653 0004346 149.0470 164.5713  1.00276512 16339
COSMOS 2534             
1 44299U 19030A   23292.36232841  .00000036  00000+0  00000+0 0  9995
2 44299  64.3840 225.4217 0012236 285.1539 221.7715  2.13101795 34219
BEIDOU-3 IGSO-2         
1 44337U 19035A   23292.32745969 -.00000099  00000+0  00000+0 0  9999
2 44337  55.1517 167.3965 0032897 194.8679 261.9288  1.00260507 15921
NAVSTAR 78 (USA 293)    
1 44506U 19056A   23292.57937854 -.00000076  00000+0  00000+0 0  9998
2 44506  55.8262   9.6508 0038179 187.4122 286.4354  2.00566285 30582
BEIDOU-3 M24            
1 44542U 19061A   23291.81982675  .00000030  00000+0  00000+0 0  9990
2 44542  54.4777 215.5559 0008593 351.5867   8.4276  1.86231478 27687
BEIDOU-3 M23            
1 44543U 19061B   23291.71778542  .00000030  00000+0  00000+0 0  9996
2 44543  54.4760 215.5288 0005715 340.4159 223.1306  1.86231816 27689
BEIDOU-3 IGSO-3         
1 44709U 19073A   23291.40205582 -.00000163  00000+0  00000+0 0  9996
2 44709  56.4631 291.2863 0034924 190.7980 169.1135  1.00268679 14705
BEIDOU-3 M22            
1 44793U 19078A   23292.20215626 -.00000055  00000+0  00000+0 0  9993
2 44793  54.7294 333.7545 0004907   7.6015 352.4670  1.86232137 26546
BEIDOU-3 M21            
1 44794U 19078B   23289.11093212 -.00000060  00000+0  00000+0 0  9991
2 44794  54.7050 333.8428 0003023 352.4572   7.6063  1.86232694 26492
COSMOS 2544             
1 44850U 19088A   23290.31310486  .00000070  00000+0  00000+0 0  9994
2 44850  65.0955 106.3500 0011219 247.7650 112.1513  2.13102164 29963
BEIDOU-3 M19            
1 44864U 19090A   23291.99637552  .00000046  00000+0  00000+0 0  9996
2 44864  55.7404  95.1562 0015371 272.6180  55.6882  1.86231629 26127
BEIDOU-3 M20            
1 44865U 19090B   23291.70666677  .00000045  00000+0  00000+0 0  9995
2 44865  55.7422  95.1988 0012969 287.5321 296.3169  1.86231608 26109
BEIDOU-3 G2             
1 45344U 20017A   23292.57124709 -.00000131  00000+0  00000+0 0  9997
2 45344   2.0786  18.5035 0003150 185.3156 109.6711  1.00270784 13519
COSMOS 2545             
1 45358U 20018A   23291.91776840 -.00000046  00000+0  00000+0 0  9994
2 45358  64.8298 346.3762 0011462 243.4905 116.4636  2.13102516 27946
BEIDOU-3 G3             
1 45807U 20040A   23292.62913626 -.00000344  00000+0  00000+0 0  9993
2 45807   0.5891 353.7200 0007849 314.4831  56.6076  1.00265392 12327
NAVSTAR 79 (USA 304)    
1 45854U 20041A   23292.52854014 -.00000002  00000+0  00000+0 0  9991
2 45854  55.9217  66.9420 0038039 187.7910 192.3110  2.00562182 24559
GALAXY 30 (G-30)        
1 46114U 20056C   23292.55764029  .00000046  00000+0  00000+0 0  9993
2 46114   0.0138 263.0382 0002670 299.5654 260.9541  1.00270849 11661
COSMOS 2547             
1 46805U 20075A   23292.10652669  .00000037  00000+0  00000+0 0  9998
2 46805  64.6117 224.9996 0007444 243.1228 116.8168  2.13102759 23198
NAVSTAR 80 (USA 309)    
1 46826U 20078A   23292.59601751  .00000028  00000+0  00000+0 0  9993
2 46826  54.2905 250.2265 0036751 194.9343 209.6338  2.00562690 22027
NAVSTAR 81 (USA 319)    
1 48859U 21054A   23292.31488444 -.00000076  00000+0  00000+0 0  9992
2 48859  55.3450  11.4256 0013480 215.7236 169.4157  2.00570975 17263
QZS-1R                  
1 49336U 21096A   23292.33035447 -.00000187  00000+0  00000+0 0  9995
2 49336  35.4466  94.2258 0746957 270.0769 277.3334  1.00277252  7264
GSAT0223 (GALILEO 27)   
1 49809U 21116A   23288.49755931 -.00000081  00000+0  00000+0 0  9995
2 49809  57.2826   7.9915 0003630 202.5759 155.2898  1.70476396 11547
GSAT0224 (GALILEO 28)   
1 49810U 21116B   23290.65532750 -.00000077  00000+0  00000+0 0  9995
2 49810  57.2835   7.9318 0002897 196.6310 157.9946  1.70476286 11604
COSMOS 2557             
1 52984U 22075A   23292.26936959 -.00000048  00000+0  00000+0 0  9992
2 52984  64.7477 348.5185 0013198 275.7375  84.1826  2.13102182 10007
COSMOS 2559             
1 54031U 22130A   23292.21150138 -.00000049  00000+0  00000+0 0  9992
2 54031  64.7191 348.6465 0007853 225.4311 134.5753  2.13101445  7972
COSMOS 2564             
1 54377U 22161A   23291.46584207  .00000038  00000+0  00000+0 0  9990
2 54377  64.7526 225.0821 0009484 222.7123 137.2274  2.13102172  6902
NAVSTAR 82 (USA 343)    
1 55268U 23009A   23292.38482781  .00000032  00000+0  00000+0 0  9992
2 55268  55.0861 186.6489 0005120  89.0256  25.3074  2.00552586  5754
BEIDOU-3 G4             
1 56564U 23066A   23292.59821007 -.00000104  00000+0  00000+0 0  9997
2 56564   2.7339 288.6383 0005989 223.3364 251.2485  1.00271194  1658
IRNSS-1J (NVS-01)       
1 56759U 23076A   23292.43775447 -.00000331  00000+0  00000+0 0  9995
2 56759   4.6258 271.2230 0007243 348.2496  55.2381  1.00264791  1373
